{"type":"FeatureCollection","features":[{"type":"Feature","properties":{"name":"Northmark"},"geometry":{"type":"Polygon","coordinates":[[[5.0,48.777],[5.0,49.503],[5.0,50.229],[5.0,50.955],[5.0,51.681],[5.0,52.407],[5.0,53.133],[4.849,49.06],[4.873,53.133],[4.9,52.798],[4.964,49.587],[5.218,48.777],[5.48,53.276],[5.519,48.508],[5.862,53.481],[5.904,48.248],[6.092,53.734],[6.106,48.0],[6.686,53.85],[6.901,54.104],[7.596,54.156],[8.031,54.305],[8.343,54.505],[8.758,54.653],[8.962,54.906],[9.25,54.906],[9.25,52.713],[9.25,50.52],[9.25,48.327],[9.25,46.134],[9.25,43.941],[9.25,41.748],[9.479,42.035],[9.26,42.249],[8.688,42.311],[8.482,42.535],[8.294,42.764],[8.087,42.985],[7.613,43.114],[7.494,43.367],[7.453,43.64],[7.175,43.84],[6.881,44.316],[6.765,45.599],[6.684,45.331],[6.652,46.081],[6.595,43.965],[6.583,44.519],[6.546,46.315],[6.503,45.038],[6.414,47.036],[6.364,44.743],[6.314,45.785],[6.304,46.538],[6.236,47.514],[6.099,46.769],[6.025,47.26],[5.619,47.748],[5.0,48.777]]]}},{"type":"Feature","properties":{"name":"Silverdale"},"geometry":{"type":"Polygon","coordinates":[[[9.25,41.748],[9.25,43.941],[9.25,46.134],[9.25,48.327],[9.25,50.52],[9.25,52.713],[9.25,54.906],[9.641,54.899],[10.072,55.016],[10.106,55.372],[10.907,55.247],[11.04,55.549],[11.318,55.76],[11.871,55.765],[12.294,55.858],[12.377,56.237],[12.942,56.205],[13.107,56.536],[13.405,56.757],[13.5,56.757],[13.5,53.912],[13.5,51.066],[13.5,48.221],[13.5,45.375],[13.5,42.529],[13.5,39.684],[13.509,39.85],[13.461,40.265],[12.828,40.15],[12.642,40.424],[12.336,40.98],[12.261,40.534],[12.022,41.128],[11.657,41.243],[11.12,41.256],[10.724,41.367],[10.389,41.519],[9.87,41.575],[9.555,41.748],[9.479,42.035],[9.26,42.249],[9.25,41.748]]]}},{"type":"Feature","properties":{"name":"Eastreach"},"geometry":{"type":"Polygon","coordinates":[[[13.5,39.684],[13.5,42.529],[13.5,45.375],[13.5,48.221],[13.5,51.066],[13.5,53.912],[13.5,56.757],[13.405,56.757],[13.995,56.672],[14.373,56.805],[14.683,57.024],[15.152,57.048],[15.406,57.364],[15.944,57.28],[16.224,57.595],[16.774,57.461],[17.161,57.61],[17.589,57.684],[17.75,57.684],[17.75,54.263],[17.75,50.843],[17.75,47.422],[17.75,44.001],[17.75,40.58],[17.75,37.159],[17.576,37.159],[17.153,37.36],[16.747,37.569],[16.339,37.751],[15.919,37.899],[15.594,38.184],[15.301,38.487],[15.109,38.896],[14.539,38.799],[14.448,39.281],[14.034,39.369],[13.837,39.684],[13.509,39.85],[13.461,40.265],[13.5,39.684]]]}},{"type":"Feature","properties":{"name":"Vale"},"geometry":{"type":"Polygon","coordinates":[[[17.75,37.159],[17.75,40.58],[17.75,44.001],[17.75,47.422],[17.75,50.843],[17.75,54.263],[17.75,57.684],[17.589,57.684],[18.104,57.546],[18.467,57.779],[19.019,57.461],[19.46,57.432],[19.89,57.43],[20.337,57.307],[20.731,57.482],[21.155,57.479],[21.593,57.139],[22.0,56.954],[22.0,56.954],[22.0,53.64],[22.0,50.325],[22.0,47.011],[22.0,43.697],[22.0,40.383],[22.0,37.069],[22.0,37.069],[21.511,37.014],[21.006,36.842],[20.507,36.84],[20.031,36.982],[19.498,36.821],[19.0,36.857],[18.54,37.018],[18.116,37.251],[17.576,37.159],[17.75,37.159]]]}},{"type":"Feature","properties":{"name":"Midlands"},"geometry":{"type":"Polygon","coordinates":[[[22.0,37.069],[22.0,40.383],[22.0,43.697],[22.0,47.011],[22.0,50.325],[22.0,53.64],[22.0,56.954],[22.0,56.954],[22.398,56.944],[22.808,57.071],[23.197,56.945],[23.549,56.669],[23.96,56.757],[24.412,56.959],[24.755,56.744],[25.222,56.916],[25.533,56.655],[25.917,56.599],[26.25,56.957],[26.25,53.839],[26.25,50.722],[26.25,47.604],[26.25,44.487],[26.25,41.369],[26.25,38.252],[26.44,38.252],[25.972,38.268],[25.61,38.01],[25.207,37.82],[24.789,37.641],[24.317,37.646],[23.834,37.736],[23.419,37.398],[22.954,37.288],[22.478,37.26],[22.0,37.069],[22.0,37.069]]]}},{"type":"Feature","properties":{"name":"Suncoast"},"geometry":{"type":"Polygon","coordinates":[[[26.25,38.252],[26.25,41.369],[26.25,44.487],[26.25,47.604],[26.25,50.722],[26.25,53.839],[26.25,56.957],[26.51,56.957],[26.991,57.036],[27.334,56.86],[27.921,57.073],[28.298,56.944],[28.894,57.109],[29.197,56.876],[29.763,56.962],[30.244,56.932],[30.5,56.934],[30.5,53.979],[30.5,51.024],[30.5,48.07],[30.5,45.115],[30.5,42.16],[30.5,39.205],[30.632,39.205],[30.056,39.272],[29.715,39.094],[29.326,38.965],[28.745,39.089],[28.52,38.741],[27.937,38.902],[27.702,38.528],[27.203,38.581],[26.823,38.423],[26.44,38.252],[26.25,38.252]]]}},{"type":"Feature","properties":{"name":"Highfell"},"geometry":{"type":"Polygon","coordinates":[[[30.5,39.205],[30.5,42.16],[30.5,45.115],[30.5,48.07],[30.5,51.024],[30.5,53.979],[30.5,56.934],[30.769,56.934],[31.396,57.02],[31.927,56.992],[32.455,56.948],[32.906,56.83],[33.037,56.461],[33.508,56.359],[33.97,56.244],[34.244,55.999],[34.629,55.828],[34.867,55.569],[34.75,55.828],[34.75,53.458],[34.75,51.088],[34.75,48.717],[34.75,46.347],[34.75,43.977],[34.75,41.606],[34.929,42.773],[34.865,42.193],[34.726,41.606],[34.711,42.568],[34.567,42.014],[34.337,41.466],[34.264,41.154],[34.171,40.841],[33.585,40.819],[33.34,40.592],[33.262,40.243],[32.781,40.168],[32.323,40.086],[32.066,39.851],[31.945,39.489],[31.43,39.459],[30.979,39.381],[30.632,39.205],[30.5,39.205]]]}},{"type":"Feature","properties":{"name":"Westport"},"geometry":{"type":"Polygon","coordinates":[[[34.75,41.606],[34.75,43.977],[34.75,46.347],[34.75,48.717],[34.75,51.088],[34.75,53.458],[34.75,55.828],[34.629,55.828],[34.867,55.569],[35.298,55.423],[35.349,55.07],[35.58,54.469],[35.593,54.829],[35.896,54.272],[36.063,54.01],[36.182,53.734],[36.541,53.242],[36.64,53.593],[36.824,53.034],[37.305,52.888],[37.547,52.66],[37.867,51.866],[37.966,52.48],[38.214,52.247],[38.52,51.73],[38.613,51.175],[38.838,51.507],[38.979,50.958],[39.056,50.688],[39.0,51.507],[39.0,50.748],[39.0,49.988],[39.0,49.228],[39.0,48.468],[39.0,47.708],[39.0,46.949],[39.179,47.205],[39.007,46.949],[38.581,46.716],[38.149,46.495],[37.885,46.268],[37.693,46.038],[37.201,45.853],[37.132,45.363],[36.976,45.64],[36.709,45.189],[36.55,44.969],[36.318,44.767],[35.903,44.612],[35.504,44.463],[35.496,43.955],[35.465,44.222],[35.455,43.43],[35.38,43.177],[35.262,43.764],[35.229,42.947],[34.929,42.773],[34.865,42.193],[34.726,41.606],[34.711,42.568],[34.567,42.014],[34.75,41.606]]]}}]}